OBJECT_NAME,OBJECT_ID,EPOCH,MEAN_MOTION,ECCENTRICITY,INCLINATION,RA_OF_ASC_NODE,ARG_OF_PERICENTER,MEAN_ANOMALY,EPHEMERIS_TYPE,CLASSIFICATION_TYPE,NORAD_CAT_ID,ELEMENT_SET_NO,REV_AT_EPOCH,BSTAR,MEAN_MOTION_DOT,MEAN_MOTION_DDOT
ONEWEB-0609,2023-043AA,2026-07-23T11:03:27.451296,13.15547517,.0002104,87.8979,251.9833,94.9198,265.2172,0,U,56070,999,16120,-.27354E-3,-.9E-6,0
ONEWEB-0613,2023-043AB,2026-07-23T14:39:04.680576,13.15547974,.000227,87.8979,251.9656,100.6287,259.5099,0,U,56071,999,16122,-.29836E-3,-.99E-6,0
ONEWEB-0630,2023-043AC,2026-07-23T03:35:04.564896,13.15549728,.0002207,87.8986,252.0314,101.3495,258.7884,0,U,56072,999,16115,-.39718E-4,-.2E-7,0
ONEWEB-0632,2023-043AD,2026-07-23T03:28:13.592928,13.15561063,.0001611,87.8978,252.0485,98.5965,261.5347,0,U,56073,999,16115,-.57227E-2,-.2141E-4,0
ONEWEB-0633,2023-043AE,2026-07-23T08:47:41.572032,13.15548790,.0002454,87.8988,251.9826,100.2997,259.8410,0,U,56074,999,16116,.18316E-3,.82E-6,0
ONEWEB-0634,2023-043AF,2026-07-23T13:55:43.874688,13.15548386,.000213,87.8977,251.9774,87.8882,272.2492,0,U,56075,999,16118,.32121E-3,.134E-5,0
ONEWEB-0635,2023-043AG,2026-07-23T04:41:16.213920,13.15548039,.0001761,87.8981,252.0196,98.8417,261.2912,0,U,56076,999,16116,.39517E-3,.162E-5,0
ONEWEB-0636,2023-043AH,2026-07-23T13:37:28.142112,13.15547994,.000181,87.8981,251.9509,98.3762,261.7573,0,U,56077,999,16119,.27171E-3,.115E-5,0
ONEWEB-0637,2023-043AJ,2026-07-23T04:20:43.713600,13.15548419,.0001867,87.8968,252.0419,89.2923,270.8421,0,U,56078,999,16116,.73806E-4,.41E-6,0
ONEWEB-0647,2023-043AK,2026-07-23T13:21:29.128032,13.15549007,.0002005,87.8974,251.9797,100.6597,259.4760,0,U,56079,999,16120,-.16863E-3,-.51E-6,0
ONEWEB-0651,2023-043AL,2026-07-23T20:32:44.911104,13.15548399,.0001823,87.8974,251.9130,94.6848,265.4491,0,U,56080,999,16244,-.49521E-4,-.6E-7,0
ONEWEB-0718,2023-043AM,2026-07-23T04:00:10.630080,13.15549879,.0002424,87.8982,252.0314,87.7151,272.4257,0,U,56081,999,16116,-.35943E-3,-.122E-5,0
ONEWEB-0561,2023-068A,2026-07-23T09:49:33.538944,13.20771146,.0001828,87.9178,267.2253,105.8151,254.3184,0,U,56710,999,15428,.15481E-3,.76E-6,0
ONEWEB-0668,2023-068B,2026-07-23T10:50:07.224000,13.16595394,.0002128,87.9079,221.5686,77.2644,282.8724,0,U,56711,999,15655,-.13181E-3,-.38E-6,0
ONEWEB-0676,2023-068C,2026-07-23T07:22:38.185824,13.16592755,.0001755,87.9078,221.6035,93.8992,266.2339,0,U,56712,999,15645,-.23043E-4,.4E-7,0
ONEWEB-0677,2023-068D,2026-07-23T14:59:52.010592,13.20772419,.0001723,87.9182,267.1736,91.4809,268.6522,0,U,56713,999,15461,-.10517E-3,-.3E-6,0
ONEWEB-0678,2023-068E,2026-07-23T14:11:42.180288,13.15548021,.0002125,87.8983,251.9422,102.9333,257.2034,0,U,56714,999,15407,.3933E-3,.161E-5,0
ONEWEB-0679,2023-068F,2026-07-23T02:44:30.623712,13.16594400,.00017387,87.9076,221.6331,77.6438,282.4887,0,U,56715,999,15645,.14845091E-3,.7E-6,0
ONEWEB-0680,2023-068G,2026-07-23T03:03:25.388352,13.21826415,.00020281,87.9235,236.8201,78.3402,281.7959,0,U,56716,999,15584,.68142614E-4,.41E-6,0
ONEWEB-0681,2023-068H,2026-07-23T08:02:33.942912,13.21824134,.000117,87.9234,236.7791,109.6010,250.5250,0,U,56717,999,15586,-.2555E-3,-.93E-6,0
ONEWEB-0682,2023-068J,2026-07-23T12:56:24.243936,13.15548347,.0002022,87.8982,251.9522,82.0479,278.0881,0,U,56718,999,15423,-.42338E-3,-.147E-5,0
ONEWEB-0683,2023-068K,2026-07-23T04:23:00.585024,13.15548639,.0002122,87.8986,252.0245,89.4976,270.6398,0,U,56719,999,15415,-.25346E-4,.3E-7,0
ONEWEB-0684,2023-068L,2026-07-23T13:42:01.096128,13.15549849,.0003228,87.8979,251.9359,110.8176,249.3301,0,U,56720,999,15403,.21672E-3,.94E-6,0
ONEWEB-0686,2023-068M,2026-07-23T01:47:31.317792,13.16594391,.00023652,87.9068,221.6610,88.3299,271.8103,0,U,56721,999,15643,-.16369548E-3,-.5E-6,0
ONEWEB-0694,2023-068N,2026-07-23T01:56:38.758560,13.16593527,.00021134,87.9089,221.6315,79.3301,280.8068,0,U,56722,999,15649,-.76157809E-4,-.16E-6,0
ONEWEB-0696,2023-068P,2026-07-23T03:32:47.442048,13.15550068,.0002167,87.8979,252.0562,109.5263,250.6101,0,U,56723,999,15409,.13741E-3,.65E-6,0
ONEWEB-0703,2023-068Q,2026-07-23T09:15:04.247712,13.15547614,.0002065,87.8977,251.9899,121.6499,238.4833,0,U,56724,999,15401,-.36175E-3,-.123E-5,0
ONEWEB-0721,2023-068R,2026-07-23T14:34:54.651072,13.22471610,.0001756,86.6739,73.8872,82.3158,277.8175,0,U,56725,999,16275,.2473E-4,.25E-6,0
ONEWEB-0015,2024-188A,2026-07-23T20:32:05.555904,13.11415861,.0001341,87.8888,13.7904,82.8164,277.3117,0,U,61594,999,8926,.10676E-2,.391E-5,0
ONEWEB-0687,2024-188B,2026-07-23T09:02:00.604032,13.17648150,.0001719,87.9150,358.6764,78.5204,281.6120,0,U,61595,999,9066,.63455E-4,.38E-6,0
