ONEWEB-0609             
1 56070U 23043AA  26204.46073439 -.00000090  00000+0 -27354-3 0  9994
2 56070  87.8979 251.9833 0002104  94.9198 265.2172 13.15547517161200
ONEWEB-0613             
1 56071U 23043AB  26204.61047084 -.00000099  00000+0 -29836-3 0  9995
2 56071  87.8979 251.9656 0002270 100.6287 259.5099 13.15547974161225
ONEWEB-0630             
1 56072U 23043AC  26204.14935839 -.00000002  00000+0 -39718-4 0  9993
2 56072  87.8986 252.0314 0002207 101.3495 258.7884 13.15549728161150
ONEWEB-0632             
1 56073U 23043AD  26204.14460177 -.00002141  00000+0 -57227-2 0  9991
2 56073  87.8978 252.0485 0001611  98.5965 261.5347 13.15561063161150
ONEWEB-0633             
1 56074U 23043AE  26204.36645338  .00000082  00000+0  18316-3 0  9997
2 56074  87.8988 251.9826 0002454 100.2997 259.8410 13.15548790161165
ONEWEB-0634             
1 56075U 23043AF  26204.58036892  .00000134  00000+0  32121-3 0  9999
2 56075  87.8977 251.9774 0002130  87.8882 272.2492 13.15548386161182
ONEWEB-0635             
1 56076U 23043AG  26204.19532655  .00000162  00000+0  39517-3 0  9992
2 56076  87.8981 252.0196 0001761  98.8417 261.2912 13.15548039161161
ONEWEB-0636             
1 56077U 23043AH  26204.56768683  .00000115  00000+0  27171-3 0  9997
2 56077  87.8981 251.9509 0001810  98.3762 261.7573 13.15547994161191
ONEWEB-0637             
1 56078U 23043AJ  26204.18106150  .00000041  00000+0  73806-4 0  9996
2 56078  87.8968 252.0419 0001867  89.2923 270.8421 13.15548419161162
ONEWEB-0647             
1 56079U 23043AK  26204.55658713 -.00000051  00000+0 -16863-3 0  9997
2 56079  87.8974 251.9797 0002005 100.6597 259.4760 13.15549007161205
ONEWEB-0651             
1 56080U 23043AL  26204.85607536 -.00000006  00000+0 -49521-4 0  9997
2 56080  87.8974 251.9130 0001823  94.6848 265.4491 13.15548399162444
ONEWEB-0718             
1 56081U 23043AM  26204.16678970 -.00000122  00000+0 -35943-3 0  9993
2 56081  87.8982 252.0314 0002424  87.7151 272.4257 13.15549879161168
ONEWEB-0561             
1 56710U 23068A   26204.40941596  .00000076  00000+0  15481-3 0  9994
2 56710  87.9178 267.2253 0001828 105.8151 254.3184 13.20771146154287
ONEWEB-0668             
1 56711U 23068B   26204.45147250 -.00000038  00000+0 -13181-3 0  9990
2 56711  87.9079 221.5686 0002128  77.2644 282.8724 13.16595394156556
ONEWEB-0676             
1 56712U 23068C   26204.30738641  .00000004  00000+0 -23043-4 0  9996
2 56712  87.9078 221.6035 0001755  93.8992 266.2339 13.16592755156455
ONEWEB-0677             
1 56713U 23068D   26204.62490753 -.00000030  00000+0 -10517-3 0  9992
2 56713  87.9182 267.1736 0001723  91.4809 268.6522 13.20772419154619
ONEWEB-0678             
1 56714U 23068E   26204.59146042  .00000161  00000+0  39330-3 0  9995
2 56714  87.8983 251.9422 0002125 102.9333 257.2034 13.15548021154074
ONEWEB-0679             
1 56715U 23068F   26204.11424333  .00000070  00000+0  14845-3 0  9999
2 56715  87.9076 221.6331 0001738  77.6438 282.4887 13.16594400156458
ONEWEB-0680             
1 56716U 23068G   26204.12737718  .00000041  00000+0  68143-4 0  9994
2 56716  87.9235 236.8201 0002028  78.3402 281.7959 13.21826415155846
ONEWEB-0681             
1 56717U 23068H   26204.33511508 -.00000093  00000+0 -25550-3 0  9998
2 56717  87.9234 236.7791 0001170 109.6010 250.5250 13.21824134155865
ONEWEB-0682             
1 56718U 23068J   26204.53916949 -.00000147  00000+0 -42338-3 0  9992
2 56718  87.8982 251.9522 0002022  82.0479 278.0881 13.15548347154233
ONEWEB-0683             
1 56719U 23068K   26204.18264566  .00000003  00000+0 -25346-4 0  9996
2 56719  87.8986 252.0245 0002122  89.4976 270.6398 13.15548639154152
ONEWEB-0684             
1 56720U 23068L   26204.57084602  .00000094  00000+0  21672-3 0  9998
2 56720  87.8979 251.9359 0003228 110.8176 249.3301 13.15549849154037
ONEWEB-0686             
1 56721U 23068M   26204.07466803 -.00000050  00000+0 -16370-3 0  9994
2 56721  87.9068 221.6610 0002365  88.3299 271.8103 13.16594391156437
ONEWEB-0694             
1 56722U 23068N   26204.08100415 -.00000016  00000+0 -76158-4 0  9993
2 56722  87.9089 221.6315 0002113  79.3301 280.8068 13.16593527156494
ONEWEB-0696             
1 56723U 23068P   26204.14777132  .00000065  00000+0  13741-3 0  9997
2 56723  87.8979 252.0562 0002167 109.5263 250.6101 13.15550068154095
ONEWEB-0703             
1 56724U 23068Q   26204.38546583 -.00000123  00000+0 -36175-3 0  9991
2 56724  87.8977 251.9899 0002065 121.6499 238.4833 13.15547614154019
ONEWEB-0721             
1 56725U 23068R   26204.60757698  .00000025  00000+0  24730-4 0  9992
2 56725  86.6739  73.8872 0001756  82.3158 277.8175 13.22471610162752
ONEWEB-0015             
1 61594U 24188A   26204.85561986  .00000391  00000+0  10676-2 0  9994
2 61594  87.8888  13.7904 0001341  82.8164 277.3117 13.11415861 89260
ONEWEB-0687             
1 61595U 24188B   26204.37639588  .00000038  00000+0  63455-4 0  9999
2 61595  87.9150 358.6764 0001719  78.5204 281.6120 13.17648150 90668
